STARLINK-38047          
1 69745U 26150G   26195.06610829  .00182350  00000+0  93216-3 0  9992
2 69745  97.2825  33.3757 0001747  80.6814 279.4652 15.80834753  3147
STARLINK-38046          
1 69746U 26150H   26195.06418209  .00259408  00000+0  13100-2 0  9993
2 69746  97.2830  33.3797 0002312  83.9394 276.2138 15.80901134  3148
STARLINK-38067          
1 69747U 26150J   26195.16668980 -.00205619  00000+0 -14047-2 0  9996
2 69747  97.2832  33.4620 0001566  88.3776  72.6869 15.75293159  3133
STARLINK-37988          
1 69748U 26150K   26195.16668980 -.00191645  00000+0 -13077-2 0  9992
2 69748  97.2831  33.4660 0001503  94.8266  76.2414 15.75282981  3131
STARLINK-37987          
1 69749U 26150L   26195.16668980 -.00100952  00000+0 -68231-3 0  9997
2 69749  97.2841  33.4754 0001499  98.0352  97.0344 15.75245575  3134
STARLINK-38037          
1 69750U 26150M   26195.05961392  .00229453  00000+0  11661-2 0  9990
2 69750  97.2830  33.3850 0001812  70.7801 289.3663 15.80840276  3141
STARLINK-38049          
1 69751U 26150N   26195.12189505  .00236594  00000+0  12003-2 0  9992
2 69751  97.2827  33.4538 0001102  93.3820 266.7574 15.80860298  3153
STARLINK-38029          
1 69752U 26150P   26195.17993431 -.00878913  00000+0 -55876-2 0  9993
2 69752  97.2837  33.5280 0000792 102.6787 257.4569 15.78690947  3161
STARLINK-37965          
1 69753U 26150Q   26195.16668980 -.00299460  00000+0 -20655-2 0  9992
2 69753  97.2836  33.5011 0001602 102.6053 148.4590 15.75326265  3136
STARLINK-38048          
1 69754U 26150R   26195.11576218  .00143877  00000+0  73823-3 0  9994
2 69754  97.2843  33.4630 0002077 215.8349 144.2780 15.80854128  3150
STARLINK-38006          
1 69755U 26150S   26195.16668980 -.01926020  00000+0 -13356-1 0  9993
2 69755  97.2840  33.5213 0001521 110.3246 190.3845 15.77583822  3132
STARLINK-38036          
1 69756U 26150T   26194.98508149  .00195211  00000+0  99485-3 0  9999
2 69756  97.2837  33.3344 0002007  71.6969 288.4517 15.80867777  3136
STARLINK-38058          
1 69757U 26150U   26195.11141588  .00190278  00000+0  97079-3 0  9991
2 69757  97.2851  33.4694 0001728 232.1206 127.9907 15.80856655  3154
STARLINK-38066          
1 69758U 26150V   26195.11126579  .00137520  00000+0  70675-3 0  9999
2 69758  97.2847  33.4696 0001255 203.1437 156.9775 15.80837007  3156
STARLINK-38035          
1 69759U 26150W   26195.11114330  .00140220  00000+0  72006-3 0  9993
2 69759  97.2844  33.4696 0001093 202.8868 157.2352 15.80847176  3151
STARLINK-38056          
1 69760U 26150X   26195.10769154  .00200141  00000+0  10201-2 0  9991
2 69760  97.2833  33.4733 0000520  83.5357 276.5970 15.80852951  3152
STARLINK-38069          
1 69761U 26150Y   26195.16668980 -.00146687  00000+0 -77456-3 0  9995
2 69761  97.2846  33.5457 0001506  90.7613 264.5476 15.80911538  3134
STARLINK-38019          
1 69762U 26150Z   26195.16668980 -.00229998  00000+0 -15753-2 0  9994
2 69762  97.2842  33.5252 0000561  96.8775 210.1773 15.75304659  3131
KUIPER-00258            
1 69763U 26151A   26194.96525308  .00014346  00000+0  42055-3 0  9992
2 69763  51.8672 186.4866 0011972 163.4951 196.6427 15.35378911  1829
KUIPER-00526            
1 69764U 26151B   26195.14693875  .00010134  00000+0  28304-3 0  9991
2 69764  51.8751 185.4613 0006086 134.8311 225.3171 15.37304197  1855
KUIPER-00558            
1 69765U 26151C   26195.15062970  .00011788  00000+0  33272-3 0  9995
2 69765  51.8750 185.4836 0007688 148.0893 212.0561 15.36796875  1856
KUIPER-00569            
1 69766U 26151D   26195.14554431  .00011326  00000+0  31357-3 0  9993
2 69766  51.8771 185.4511 0005128 130.5252 229.6182 15.37455860  1852
KUIPER-00589            
1 69767U 26151E   26195.14620034  .00012907  00000+0  35635-3 0  9996
2 69767  51.8747 185.4555 0005923 141.3395 218.8016 15.37403786  1851
KUIPER-00598            
1 69768U 26151F   26194.96449345  .00015430  00000+0  45341-3 0  9999
2 69768  51.8595 186.4767 0012310 154.6943 205.4648 15.35235696  1824
KUIPER-00604            
1 69769U 26151G   26195.13984527  .00011966  00000+0  32263-3 0  9995
2 69769  51.8789 185.4110 0003003 109.6329 250.4982 15.38224928  1851
KUIPER-00609            
1 69770U 26151H   26195.13661780  .00010948  00000+0  29234-3 0  9993
2 69770  51.8786 185.3895 0001168  49.4182 310.6907 15.38620840  1856
KUIPER-00611            
1 69771U 26151J   26195.13820677  .00008320  00000+0  22609-3 0  9996
2 69771  51.8790 185.3965 0001702  97.0504 263.0677 15.38430582  1858
KUIPER-00612            
1 69772U 26151K   26195.14213174  .00010074  00000+0  27598-3 0  9997
2 69772  51.8780 185.4276 0003942 113.4481 246.6920 15.37923840  1850
KUIPER-00614            
1 69773U 26151L   26195.14050672  .00011802  00000+0  31928-3 0  9992
2 69773  51.8794 185.4144 0002870 118.1389 241.9889 15.38136412  1852
KUIPER-00615            
1 69774U 26151M   26195.14763183  .00012580  00000+0  34973-3 0  9998
2 69774  51.8763 185.4650 0006139 142.7351 217.4063 15.37212235  1854
