OBJECT_NAME,OBJECT_ID,EPOCH,MEAN_MOTION,ECCENTRICITY,INCLINATION,RA_OF_ASC_NODE,ARG_OF_PERICENTER,MEAN_ANOMALY,EPHEMERIS_TYPE,CLASSIFICATION_TYPE,NORAD_CAT_ID,ELEMENT_SET_NO,REV_AT_EPOCH,BSTAR,MEAN_MOTION_DOT,MEAN_MOTION_DDOT
STARLINK-38047,2026-150G,2026-07-14T01:35:11.756256,15.80834753,.0001747,97.2825,33.3757,80.6814,279.4652,0,U,69745,999,314,.93216E-3,.18235E-2,0
STARLINK-38046,2026-150H,2026-07-14T01:32:25.332576,15.80901134,.0002312,97.2830,33.3797,83.9394,276.2138,0,U,69746,999,314,.131E-2,.259408E-2,0
STARLINK-38067,2026-150J,2026-07-14T04:00:01.998720,15.75293159,.0001566,97.2832,33.4620,88.3776,72.6869,0,U,69747,999,313,-.14047E-2,-.205619E-2,0
STARLINK-37988,2026-150K,2026-07-14T04:00:01.998720,15.75282981,.0001503,97.2831,33.4660,94.8266,76.2414,0,U,69748,999,313,-.13077E-2,-.191645E-2,0
STARLINK-37987,2026-150L,2026-07-14T04:00:01.998720,15.75245575,.0001499,97.2841,33.4754,98.0352,97.0344,0,U,69749,999,313,-.68231E-3,-.100952E-2,0
STARLINK-38037,2026-150M,2026-07-14T01:25:50.642688,15.80840276,.0001812,97.2830,33.3850,70.7801,289.3663,0,U,69750,999,314,.11661E-2,.229453E-2,0
STARLINK-38049,2026-150N,2026-07-14T02:55:31.732320,15.80860298,.0001102,97.2827,33.4538,93.3820,266.7574,0,U,69751,999,315,.12003E-2,.236594E-2,0
STARLINK-38029,2026-150P,2026-07-14T04:19:06.324384,15.78690947,.0000792,97.2837,33.5280,102.6787,257.4569,0,U,69752,999,316,-.55876E-2,-.878913E-2,0
STARLINK-37965,2026-150Q,2026-07-14T04:00:01.998720,15.75326265,.0001602,97.2836,33.5011,102.6053,148.4590,0,U,69753,999,313,-.20655E-2,-.29946E-2,0
STARLINK-38048,2026-150R,2026-07-14T02:46:41.852352,15.80854128,.0002077,97.2843,33.4630,215.8349,144.2780,0,U,69754,999,315,.73823E-3,.143877E-2,0
STARLINK-38006,2026-150S,2026-07-14T04:00:01.998720,15.77583822,.0001521,97.2840,33.5213,110.3246,190.3845,0,U,69755,999,313,-.13356E-1,-.192602E-1,0
STARLINK-38036,2026-150T,2026-07-13T23:38:31.040736,15.80867777,.0002007,97.2837,33.3344,71.6969,288.4517,0,U,69756,999,313,.99485E-3,.195211E-2,0
STARLINK-38058,2026-150U,2026-07-14T02:40:26.332032,15.80856655,.0001728,97.2851,33.4694,232.1206,127.9907,0,U,69757,999,315,.97079E-3,.190278E-2,0
STARLINK-38066,2026-150V,2026-07-14T02:40:13.364256,15.80837007,.0001255,97.2847,33.4696,203.1437,156.9775,0,U,69758,999,315,.70675E-3,.13752E-2,0
STARLINK-38035,2026-150W,2026-07-14T02:40:02.781120,15.80847176,.0001093,97.2844,33.4696,202.8868,157.2352,0,U,69759,999,315,.72006E-3,.14022E-2,0
STARLINK-38056,2026-150X,2026-07-14T02:35:04.549056,15.80852951,.000052,97.2833,33.4733,83.5357,276.5970,0,U,69760,999,315,.10201E-2,.200141E-2,0
STARLINK-38069,2026-150Y,2026-07-14T04:00:01.998720,15.80911538,.0001506,97.2846,33.5457,90.7613,264.5476,0,U,69761,999,313,-.77456E-3,-.146687E-2,0
STARLINK-38019,2026-150Z,2026-07-14T04:00:01.998720,15.75304659,.0000561,97.2842,33.5252,96.8775,210.1773,0,U,69762,999,313,-.15753E-2,-.229998E-2,0
KUIPER-00258,2026-151A,2026-07-13T23:09:57.866112,15.35378911,.0011972,51.8672,186.4866,163.4951,196.6427,0,U,69763,999,182,.42055E-3,.14346E-3,0
KUIPER-00526,2026-151B,2026-07-14T03:31:35.508000,15.37304197,.0006086,51.8751,185.4613,134.8311,225.3171,0,U,69764,999,185,.28304E-3,.10134E-3,0
KUIPER-00558,2026-151C,2026-07-14T03:36:54.406080,15.36796875,.0007688,51.8750,185.4836,148.0893,212.0561,0,U,69765,999,185,.33272E-3,.11788E-3,0
KUIPER-00569,2026-151D,2026-07-14T03:29:35.028384,15.37455860,.0005128,51.8771,185.4511,130.5252,229.6182,0,U,69766,999,185,.31357E-3,.11326E-3,0
KUIPER-00589,2026-151E,2026-07-14T03:30:31.709376,15.37403786,.0005923,51.8747,185.4555,141.3395,218.8016,0,U,69767,999,185,.35635E-3,.12907E-3,0
KUIPER-00598,2026-151F,2026-07-13T23:08:52.234080,15.35235696,.001231,51.8595,186.4767,154.6943,205.4648,0,U,69768,999,182,.45341E-3,.1543E-3,0
KUIPER-00604,2026-151G,2026-07-14T03:21:22.631328,15.38224928,.0003003,51.8789,185.4110,109.6329,250.4982,0,U,69769,999,185,.32263E-3,.11966E-3,0
KUIPER-00609,2026-151H,2026-07-14T03:16:43.777920,15.38620840,.0001168,51.8786,185.3895,49.4182,310.6907,0,U,69770,999,185,.29234E-3,.10948E-3,0
KUIPER-00611,2026-151J,2026-07-14T03:19:01.064928,15.38430582,.0001702,51.8790,185.3965,97.0504,263.0677,0,U,69771,999,185,.22609E-3,.832E-4,0
KUIPER-00612,2026-151K,2026-07-14T03:24:40.182336,15.37923840,.0003942,51.8780,185.4276,113.4481,246.6920,0,U,69772,999,185,.27598E-3,.10074E-3,0
KUIPER-00614,2026-151L,2026-07-14T03:22:19.780608,15.38136412,.000287,51.8794,185.4144,118.1389,241.9889,0,U,69773,999,185,.31928E-3,.11802E-3,0
KUIPER-00615,2026-151M,2026-07-14T03:32:35.390112,15.37212235,.0006139,51.8763,185.4650,142.7351,217.4063,0,U,69774,999,185,.34973E-3,.1258E-3,0
